ISS OBJECT YE           
1 67688U 98067YE  26063.50513603  .00064836  00000+0  10599-2 0  9997
2 67688  51.6315  97.5383 0007786 134.7310 225.4314 15.51890022  3906
CREW DRAGON 12          
1 67796U 26031A   26063.54402654  .00009464  00000+0  18311-3 0  9993
2 67796  51.6315  97.7962 0008198 156.3781 203.7585 15.48441338555472
